[{"OBJECT_NAME":"YAOGAN-43 02F","OBJECT_ID":"2024-156F","EPOCH":"2026-03-09T13:00:32.217984","MEAN_MOTION":15.22951134,"ECCENTRICITY":0.00011647,"INCLINATION":34.9922,"RA_OF_ASC_NODE":104.6026,"ARG_OF_PERICENTER":214.3893,"MEAN_ANOMALY":145.6747,"EPHEMERIS_TYPE":0,"CLASSIFICATION_TYPE":"U","NORAD_CAT_ID":60950,"ELEMENT_SET_NO":999,"REV_AT_EPOCH":8424,"BSTAR":0.00046453388,"MEAN_MOTION_DOT":0.00011154,"MEAN_MOTION_DDOT":0},{"OBJECT_NAME":"CZ-6A DEB","OBJECT_ID":"2022-151ZP","EPOCH":"2026-03-09T04:30:54.238464","MEAN_MOTION":15.16398418,"ECCENTRICITY":0.00295026,"INCLINATION":98.6165,"RA_OF_ASC_NODE":143.0832,"ARG_OF_PERICENTER":204.3397,"MEAN_ANOMALY":155.6441,"EPHEMERIS_TYPE":0,"CLASSIFICATION_TYPE":"U","NORAD_CAT_ID":55867,"ELEMENT_SET_NO":999,"REV_AT_EPOCH":16441,"BSTAR":0.0090941605,"MEAN_MOTION_DOT":0.00182799,"MEAN_MOTION_DDOT":0}]
